NAVSTAR 77 (USA 289)    
1 43873U 18109A   24171.27102993  .00000017  00000+0  00000+0 0  9998
2 43873  55.2984 120.9464 0029093 195.2476 298.7401  2.00556168 40472
